[
    {
        "name": "NOAA 15",
        "first tle line": "1 25338U 98030A   25260.23741604  .00000136  00000+0  73416-4 0  9997",
        "second tle line": "2 25338  98.5320 282.9539 0011377  70.0485 290.1920 14.27016877422364"
    },
    {
        "name": "NOAA 18",
        "first tle line": "1 28654U 05018A   25260.20909389  .00000073  00000+0  62108-4 0  9994",
        "second tle line": "2 28654  98.8366 338.5409 0013877 202.6677 157.3885 14.13637646 47745"
    },
    {
        "name": "NOAA 19",
        "first tle line": "1 33591U 09005A   25260.23162538  .00000075  00000+0  63989-4 0  9990",
        "second tle line": "2 33591  98.9884 325.4548 0014808  83.3712 276.9145 14.13407306855927"
    },
    {
        "name": "NOAA 20 (JPSS-1)",
        "first tle line": "1 43013U 17073A   25260.22283072  .00000072  00000+0  54936-4 0  9999",
        "second tle line": "2 43013  98.7450 197.5289 0001494  44.8396 315.2901 14.19560576405744"
    },
    {
        "name": "NOAA 21 (JPSS-2)",
        "first tle line": "1 54234U 22150A   25260.25887513  .00000052  00000+0  45644-4 0  9995",
        "second tle line": "2 54234  98.7313 197.7065 0000601 214.6125 145.5012 14.19559280147828"
    },
    {
        "name": "METEOR-M 2",
        "first tle line": "1 40069U 14037A   25260.30315520  .00000131  00000+0  79353-4 0  9993",
        "second tle line": "2 40069  98.4793 241.2433 0006897 105.9169 254.2770 14.21332354580559"
    },
    {
        "name": "METEOR-M2 2",
        "first tle line": "1 44387U 19038A   25260.25756144  .00000100  00000+0  63197-4 0  9996",
        "second tle line": "2 44387  98.8855 238.9697 0002372  85.0053 275.1396 14.24235922322442"
    }
]